H1 CPF 01  gfz 2021 10 17 00  7901 terrasarx 
H2 0702601  6201 31698    2021 10 17 00 59 42 2021 10 22 00 00 42   120 1 1  0 0 0
H9
10 0 59507  59022.000000  0    2607052.301    271181.383   6359847.631
10 0 59507  59142.000000  0    1827432.250   -137377.061   6629602.962
10 0 59507  59262.000000  0    1008920.036   -529554.770   6782854.549
10 0 59507  59382.000000  0     166152.442   -897956.684   6816928.760
10 0 59507  59502.000000  0    -685692.724  -1235863.790   6731232.673
10 0 59507  59622.000000  0   -1531169.323  -1537355.620   6527262.964
10 0 59507  59742.000000  0   -2354841.395  -1797413.771   6208580.040
10 0 59507  59862.000000  0   -3141562.760  -2012004.756   5780750.743
10 0 59507  59982.000000  0   -3876758.213  -2178143.713   5251259.744
10 0 59507  60102.000000  0   -4546699.005  -2293936.508   4629383.799
10 0 59507  60222.000000  0   -5138765.390  -2358598.394   3926033.488
10 0 59507  60342.000000  0   -5641691.263  -2372448.287   3153564.702
10 0 59507  60462.000000  0   -6045786.508  -2336879.755   2325563.619
10 0 59507  60582.000000  0   -6343133.132  -2254310.259   1456607.175
10 0 59507  60702.000000  0   -6527748.826  -2128107.921    562000.184
10 0 59507  60822.000000  0   -6595710.601  -1962497.081   -342501.759
10 0 59507  60942.000000  0   -6545239.039  -1762445.769  -1240978.730
10 0 59507  61062.000000  0   -6376737.692  -1533538.070  -2117636.103
10 0 59507  61182.000000  0   -6092788.322  -1281835.112  -2957089.463
10 0 59507  61302.000000  0   -5698102.951  -1013728.264  -3744639.280
10 0 59507  61422.000000  0   -5199434.712   -735787.904  -4466529.930
10 0 59507  61542.000000  0   -4605450.103   -454611.416  -5110187.974
10 0 59507  61662.000000  0   -3926566.012   -176674.802  -5664435.465
10 0 59507  61782.000000  0   -3174756.017     91808.995  -6119674.831
10 0 59507  61902.000000  0   -2363331.977    345022.168  -6468042.955
10 0 59507  62022.000000  0   -1506705.519    577661.338  -6703535.425
10 0 59507  62142.000000  0    -620132.469    785042.720  -6822099.647
10 0 59507  62262.000000  0     280554.261    963192.716  -6821695.835
10 0 59507  62382.000000  0    1179219.331   1108920.785  -6702328.522
10 0 59507  62502.000000  0    2059707.737   1219875.157  -6466049.219
10 0 59507  62622.000000  0    2906129.768   1294580.769  -6116924.899
10 0 59507  62742.000000  0    3703143.656   1332457.864  -5660974.402
10 0 59507  62862.000000  0    4436230.731   1333821.147  -5106074.574
10 0 59507  62982.000000  0    5091962.187   1299860.022  -4461836.496
10 0 59507  63102.000000  0    5658251.259   1232599.868  -3739449.363
10 0 59507  63222.000000  0    6124584.446   1134844.486  -2951495.093
10 0 59507  63342.000000  0    6482227.965   1010100.761  -2111736.106
10 0 59507  63462.000000  0    6724404.498    862487.367  -1234877.343
10 0 59507  63582.000000  0    6846433.370    696628.527   -336306.614
10 0 59507  63702.000000  0    6845829.707    517536.007    568180.500
10 0 59507  63822.000000  0    6722361.252    330482.666   1462664.799
10 0 59507  63942.000000  0    6478060.879    140868.922   2331392.706
10 0 59507  64062.000000  0    6117191.519    -45912.640   3159063.347
10 0 59507  64182.000000  0    5646166.385   -224612.261   3931105.487
10 0 59507  64302.000000  0    5073426.341   -390252.284   4633938.249
10 0 59507  64422.000000  0    4409280.268   -538249.262   5255212.970
10 0 59507  64542.000000  0    3665707.727   -664525.744   5784029.488
10 0 59507  64662.000000  0    2856133.557   -765607.748   6211122.897
10 0 59507  64782.000000  0    1995178.338   -838707.535   6529020.447
10 0 59507  64902.000000  0    1098389.987   -881789.746   6732167.054
10 0 59507  65022.000000  0     181959.011   -893619.805   6817017.160
10 0 59507  65142.000000  0    -737574.738   -873793.265   6782091.347
10 0 59507  65262.000000  0   -1643619.451   -822746.439   6627999.603
10 0 59507  65382.000000  0   -2519829.148   -741747.170   6357430.913
10 0 59507  65502.000000  0   -3350397.165   -632866.383   5975109.924
10 0 59507  65622.000000  0   -4120343.082   -498930.734   5487720.952
10 0 59507  65742.000000  0   -4815788.031   -343457.732   4903797.780
10 0 59507  65862.000000  0   -5424212.046   -170573.822   4233579.379
10 0 59507  65982.000000  0   -5934688.000     15082.796   3488834.052
10 0 59507  66102.000000  0   -6338086.799    208472.863   2682655.147
10 0 59507  66222.000000  0   -6627251.206    404278.226   1829230.980
10 0 59507  66342.000000  0   -6797132.218    597032.103    943591.312
10 0 59507  66462.000000  0   -6844884.239    781253.928     41335.881
10 0 59507  66582.000000  0   -6769915.635    951586.068   -861649.353
10 0 59507  66702.000000  0   -6573892.607   1102928.392  -1749481.107
10 0 59507  66822.000000  0   -6260698.605   1230566.957  -2606564.960
10 0 59507  66942.000000  0   -5836351.503   1330295.283  -3417876.631
10 0 59507  67062.000000  0   -5308875.417   1398522.865  -4169229.933
10 0 59507  67182.000000  0   -4688135.865   1432369.123  -4847523.518
10 0 59507  67302.000000  0   -3985642.840   1429741.150  -5440964.408
10 0 59507  67422.000000  0   -3214327.206   1389393.549  -5939264.171
10 0 59507  67542.000000  0   -2388296.110   1310969.018  -6333806.996
10 0 59507  67662.000000  0   -1522571.428   1195019.884  -6617787.640
10 0 59507  67782.000000  0    -632816.132   1043010.540  -6786316.879
10 0 59507  67902.000000  0     264944.430    857300.062  -6836495.497
10 0 59507  68022.000000  0    1154603.078    641106.609  -6767459.311
10 0 59507  68142.000000  0    2020253.804    398452.691  -6580394.723
10 0 59507  68262.000000  0    2846470.239    134092.435  -6278519.875
10 0 59507  68382.000000  0    3618576.244   -146577.519  -5867035.416
10 0 59507  68502.000000  0    4322903.961   -437623.628  -5353042.894
10 0 59507  68622.000000  0    4947036.590   -732694.796  -4745434.289
10 0 59507  68742.000000  0    5480033.888  -1025154.727  -4054749.845
10 0 59507  68862.000000  0    5912632.653  -1308224.165  -3293004.780
10 0 59507  68982.000000  0    6237418.750  -1575130.634  -2473487.746
10 0 59507  69102.000000  0    6448966.516  -1819262.516  -1610533.172
10 0 59507  69222.000000  0    6543941.001  -2034323.501   -719270.651
10 0 59507  69342.000000  0    6521160.040  -2214483.293    184643.359
10 0 59507  69462.000000  0    6381614.137  -2354521.419   1085306.940
10 0 59507  69582.000000  0    6128442.248  -2449959.235   1966861.207
10 0 59507  69702.000000  0    5766863.577  -2497177.714   2813778.777
10 0 59507  69822.000000  0    5304067.784  -2493517.014   3611145.902
10 0 59507  69942.000000  0    4749064.963  -2437355.194   4344931.022
10 0 59507  70062.000000  0    4112503.163  -2328164.581   5002233.727
10 0 59507  70182.000000  0    3406456.764  -2166545.746   5571513.431
10 0 59507  70302.000000  0    2644187.627  -1954236.943   6042789.977
10 0 59507  70422.000000  0    1839889.178  -1694099.079   6407813.153
10 0 59507  70542.000000  0    1008417.375  -1390077.984   6660201.273
10 0 59507  70662.000000  0     165013.168  -1047143.853   6795546.911
10 0 59507  70782.000000  0    -674977.676   -671208.775   6811488.298
10 0 59507  70902.000000  0   -1496382.618   -269024.600   6707747.129
10 0 59507  71022.000000  0   -2284475.043    151937.982   6486133.080
10 0 59507  71142.000000  0   -3025237.349    583627.510   6150514.699
10 0 59507  71262.000000  0   -3705611.161   1017564.498   5706756.788
10 0 59507  71382.000000  0   -4313731.258   1445006.439   5162624.433
10 0 59507  71502.000000  0   -4839138.637   1857122.681   4527653.115
10 0 59507  71622.000000  0   -5272967.897   2245176.383   3812986.268
10 0 59507  71742.000000  0   -5608104.585   2600708.831   3031182.405
10 0 59507  71862.000000  0   -5839309.415   2915722.373   2195995.535
10 0 59507  71982.000000  0   -5963307.350   3182858.050   1322131.528
10 0 59507  72102.000000  0   -5978837.938   3395563.705    424983.148
10 0 59507  72222.000000  0   -5886663.346   3548246.748   -479649.078
10 0 59507  72342.000000  0   -5689536.223   3636408.225  -1375843.549
10 0 59507  72462.000000  0   -5392128.240   3656755.680  -2247847.126
10 0 59507  72582.000000  0   -5000918.049   3607290.219  -3080360.678
10 0 59507  72702.000000  0   -4524044.625   3487366.608  -3858812.256
10 0 59507  72822.000000  0   -3971129.540   3297724.955  -4569612.724
10 0 59507  72942.000000  0   -3353074.896   3040494.477  -5200389.447
10 0 59507  73062.000000  0   -2681841.489   2719169.523  -5740193.657
10 0 59507  73182.000000  0   -1970213.834   2338560.010  -6179681.378
10 0 59507  73302.000000  0   -1231553.502   1904715.810  -6511264.653
10 0 59507  73422.000000  0    -479549.127   1424828.012  -6729230.104
10 0 59507  73542.000000  0     272033.376    907109.223  -6829827.268
10 0 59507  73662.000000  0    1009596.153    360655.074  -6811326.277
10 0 59507  73782.000000  0    1719950.627   -204712.370  -6674045.906
10 0 59507  73902.000000  0    2390547.947   -778617.194  -6420347.243
10 0 59507  74022.000000  0    3009696.102  -1350314.946  -6054597.995
10 0 59507  74142.000000  0    3566761.705  -1908888.523  -5583104.776
10 0 59507  74262.000000  0    4052353.828  -2443452.607  -5014016.257
10 0 59507  74382.000000  0    4458487.020  -2943364.993  -4357193.071
10 0 59507  74502.000000  0    4778717.810  -3398438.386  -3624046.987
10 0 59507  74622.000000  0    5008254.412  -3799148.721  -2827352.015
10 0 59507  74742.000000  0    5144036.870  -4136836.766  -1981027.663
10 0 59507  74862.000000  0    5184783.550  -4403896.837  -1099897.559
10 0 59507  74982.000000  0    5131003.118  -4593948.899   -199428.022
10 0 59507  75102.000000  0    4984969.823  -4701989.155    704548.842
10 0 59507  75222.000000  0    4750662.629  -4724513.595   1596121.812
10 0 59507  75342.000000  0    4433669.269  -4659611.189   2459589.730
10 0 59507  75462.000000  0    4041058.521  -4507024.898   3279746.119
99
